GLOBALSTAR M094 [+]     
1 39074U 13005C   23302.92112404 -.00000060  00000+0  24381-3 0  9992
2 39074  51.9948 197.5727 0001065  68.9108 291.1873 12.62269045497078
GLOBALSTAR M096 [+]     
1 39075U 13005D   23303.17184807 -.00000087  00000+0  94862-4 0  9998
2 39075  52.0067 244.8571 0000975  53.3282 306.7674 12.62265291496379
GLOBALSTAR M078 [+]     
1 39076U 13005E   23302.98689737  .00000029  00000+0  73867-3 0  9995
2 39076  51.9887 330.7409 0000670 316.6936  43.3877 12.62263183494832
GLOBALSTAR M095 [+]     
1 39077U 13005F   23303.09270126 -.00000078  00000+0  14181-3 0  9996
2 39077  51.9812 327.9130 0000663   6.1385 353.9489 12.62270127494858
GLOBALSTAR M087 [+]     
1 52888U 22064A   23303.13901621 -.00000090  00000+0  73015-4 0  9998
2 52888  51.9758 294.0243 0009681 135.6759 224.4918 13.37556404 66608
